PROMETHEUS 2-1          
1 41854U 16067G   23269.64925717  .00019542  00000+0  12804-2 0  9992
2 41854  98.0798  64.2552 0015691 233.5328 126.4453 15.07658044375760
PROMETHEUS 2-3          
1 41855U 16067H   23269.37798274  .00016652  00000+0  10938-2 0  9994
2 41855  98.0722  63.7246 0013219 243.9648 116.0218 15.07632646375726
INS-1B                  
1 41954U 17008G   23269.71294813  .00597508  14009-3  20125-2 0  9999
2 41954  97.1769 332.9746 0003985 259.8538 100.2286 15.90013144368793
DIDO-2                  
1 42000U 17008BE  23269.72986041  .00040717  00000+0  87153-3 0  9996
2 42000  97.1909 324.4404 0005575  42.5214 317.6466 15.44665934367583
PEASSS                  
1 42015U 17008BV  23269.73488370  .00169597  00000+0  15508-2 0  9997
2 42015  97.1923 334.3999 0001173 349.0532  11.0704 15.67286543368673
UCLSAT                  
1 42765U 17036A   23269.83895042  .00214640  00000+0  18601-2 0  9996
2 42765  97.1283 309.0647 0005011  92.6203 267.5633 15.68465995349718
AALTO-1                 
1 42775U 17036L   23269.60055136  .00036253  00000+0  91123-3 0  9997
2 42775  97.1452 296.9555 0011138  98.6398 261.6111 15.39813943348103
URSA MAIOR              
1 42776U 17036M   23269.64191106  .00044077  00000+0  10103-2 0  9991
2 42776  97.1458 298.6885 0010614  95.0945 265.1515 15.42567666348202
DIAMOND RED             
1 42783U 17036U   23269.83303980  .00060484  00000+0  11897-2 0  9996
2 42783  97.1421 302.6984 0008757  96.2654 263.9594 15.47025780348474
PEGASUS                 
1 42784U 17036V   23269.62163443  .00116599  00000+0  15031-2 0  9995
2 42784  97.1363 306.4581 0006924  88.0477 272.1573 15.58594071348713
DIAMOND GREEN           
1 42785U 17036W   23269.03234208  .00058110  00000+0  10760-2 0  9997
2 42785  97.1411 302.3044 0008436  99.9511 260.2693 15.48783552348441
DIAMOND BLUE            
1 42786U 17036X   23269.87376650  .00057997  00000+0  11101-2 0  9990
2 42786  97.1412 302.9915 0008638  94.9203 265.3034 15.47827928348566
SUCHAI                  
1 42788U 17036Z   23269.63646441  .00864839  33746-3  21011-2 0  9993
2 42788  97.1190 312.8722 0002443 187.0475 173.0768 15.96336681349217
SKCUBE                  
1 42789U 17036AA  23269.63588800  .00219801  00000+0  17786-2 0  9998
2 42789  97.1290 309.6719 0005021  92.2668 267.9169 15.70125006348929
ROBUSTA 1B              
1 42792U 17036AD  23269.63154328  .00465027  00000+0  20219-2 0  9994
2 42792  97.1234 311.8596 0002590 119.4226 240.7303 15.83625833349083
CICERO 6                
1 42793U 17036AE  23269.61920790  .00044422  00000+0  96206-3 0  9999
2 42793  97.1404 302.2827 0008347  97.9173 262.3024 15.44279368348524
CORVUS BC2              
1 42846U 17042X   23269.52950485  .00004658  00000+0  42719-3 0  9996
2 42846  97.3805 104.7961 0007700 226.5698 133.4884 14.95306326337865
CORVUS BC1              
1 42847U 17042Y   23269.84894024  .00004941  00000+0  45172-3 0  9999
2 42847  97.3808 105.4622 0007235 222.0602 138.0065 14.95410325337924
MIRATA                  
1 43015U 17073C   23269.68272218  .00026090  00000+0  15427-2 0  9996
2 43015  97.6180 154.5958 0204373  75.6715 286.7101 14.95513170316644
MAKERSAT 0              
1 43016U 17073D   23269.90177755  .00016533  00000+0  10654-2 0  9990
2 43016  97.6159 152.1857 0221827  86.6571 275.9995 14.90277865316451
CORVUS BC3              
1 43118U 18004H   23269.78276649  .00047625  00000+0  10523-2 0  9997
2 43118  97.3179 344.3000 0007383 133.5127 226.6736 15.43677029317683
CICERO 7                
1 43143U 18004AJ  23269.81564698  .00193599  00000+0  14175-2 0  9992
2 43143  97.3171   0.0764 0001564 153.1168 207.0177 15.72608291318628
GOMX-4B                 
1 43196U 18015E   23269.89198556  .00035066  00000+0  87012-3 0  9991
2 43196  97.5895  64.1481 0012837 198.7669 161.3105 15.40195988314587
GOMX-4A                 
1 43197U 18015F   23269.85343759  .00041742  00000+0  90571-3 0  9997
2 43197  97.5887  66.7750 0012192 192.0514 168.0444 15.44197761314761
CUBEBEL-1 (BSUSAT-1)    
1 43666U 18083E   23269.84629083  .00077191  00000+0  15571-2 0  9992
2 43666  97.3713 302.5336 0009986 112.6449 247.5858 15.46207790272863
CICERO 10               
1 43690U 18088A   23269.69985428  .00043201  00000+0  10383-2 0  9996
2 43690  85.0333   3.6780 0009868 203.5509 156.5293 15.41096329271107
PROXIMA I               
1 43694U 18088E   23269.70289169  .00056017  00000+0  11716-2 0  9991
2 43694  85.0264 358.8881 0011901 168.5323 191.6205 15.45178121271429
PROXIMA II              
1 43696U 18088G   23269.72675138  .00055645  00000+0  11710-2 0  9990
2 43696  85.0267 358.9412 0012085 168.4704 191.6830 15.44995967271418
SIRION PATHFINDER-2     
1 43759U 18099B   23269.71315097  .00007170  00000+0  58714-3 0  9992
2 43759  97.5621 328.4891 0015708 128.9687 231.2939 14.99498755262838
CORVUS BC4              
1 43767U 18099K   23269.71334817  .00007767  00000+0  64434-3 0  9990
2 43767  97.5580 326.2901 0012703 132.8406 227.3887 14.99001590262738
MOVE-II                 
1 43780U 18099Y   23269.71102276  .00019288  00000+0  13249-2 0  9995
2 43780  97.5625 331.6836 0009152 159.0100 201.1505 15.05965833263001
SPACEBEE-7              
1 43816U 18099BL  23269.72211128  .00015502  00000+0  11156-2 0  9993
2 43816  97.5893 332.6309 0012731 112.8073 247.4500 15.04238713262564
SPACEBEE-5              
1 43817U 18099BM  23269.13168966  .00082049  00000+0  31460-2 0  9990
2 43817  97.5825 341.9574 0003656 112.4834 247.6791 15.26163593263049
SPACEBEE-6              
1 43818U 18099BN  23269.67055500  .00025897  00000+0  16407-2 0  9991
2 43818  97.5804 335.1325 0012488 125.7473 234.4919 15.08863182262850
SHIELDS 1               
1 43850U 18104B   23269.56803181  .00013350  00000+0  45392-3 0  9995
2 43850  85.0218 101.6012 0012165 350.9666   9.1359 15.30248567265604
STF-1                   
1 43852U 18104D   23269.52475580  .00081893  00000+0  13777-2 0  9999
2 43852  85.0158  97.5138 0008000 342.3565  17.7414 15.51400832266063
ZACUBE-2                
1 43907U 18111AH  23269.85772640  .00058328  00000+0  11441-2 0  9994
2 43907  97.1194 147.3847 0012008 190.6705 169.4293 15.47079058264832
LUME 1                  
1 43908U 18111AJ  23269.66864879  .00082297  00000+0  11983-2 0  9993
2 43908  97.1187 151.9049 0010418 170.2337 189.9123 15.55395469265115
MOVE-IIB                
1 44398U 19038N   23269.90813227  .00170411  00000+0  23816-2 0  9998
2 44398  97.6647 258.6254 0003709 270.0334  90.0495 15.56247926234394
SONATE                  
1 44400U 19038Q   23268.92891221  .00019780  00000+0  82392-3 0  9999
2 44400  97.6936 248.8612 0018160 326.8716  33.1382 15.23616725233561
LUCKY-7                 
1 44406U 19038W   23269.91365118  .00029268  00000+0  10877-2 0  9996
2 44406  97.6891 251.6070 0015724 316.4592  43.5404 15.27380527233839
BEESAT 9                
1 44412U 19038AC  23268.69660454  .00054245  00000+0  15515-2 0  9995
2 44412  97.6818 253.0763 0010788 318.9343  41.1087 15.35727876233557
JAISAT-1                
1 44419U 19038F   23269.86610429  .00053949  00000+0  15266-2 0  9992
2 44419  97.6804 255.4148 0009889 309.8634  50.1739 15.36073979234110
DUCHIFAT-3              
1 44854U 19089C   23269.90336202  .00016515  00000+0  10509-2 0  9993
2 44854  36.9602 202.5735 0005482  67.1739 292.9584 15.08132709208251
EYESAT-NANO             
1 44877U 19092E   23269.76561666  .00219986  00000+0  28348-2 0  9997
2 44877  97.4525 103.4683 0003316 110.3522 249.8091 15.58268897209829
M2 PATHFINDER           
1 45727U 20037E   23269.43947141  .00005846  00000+0  54314-3 0  9994
2 45727  97.7640  82.9843 0010566 289.8539  70.1542 14.94710939176365
NETSAT-4                
1 46504U 20068U   23269.81476601  .00013452  00000+0  85178-3 0  9996
2 46504  97.7693 216.7218 0010814 173.5157 186.6213 15.09051718164221
NETSAT-3                
1 46505U 20068V   23269.86198114  .00011799  00000+0  75292-3 0  9990
2 46505  97.7680 216.5333 0009615 180.0827 180.0401 15.08808742164232
NETSAT-1                
1 46506U 20068W   23269.79845446  .00010578  00000+0  68505-3 0  9993
2 46506  97.7693 216.3023 0007738 189.6681 170.4399 15.08307805164219
NETSAT-2                
1 46507U 20068X   23269.81753669  .00013010  00000+0  82619-3 0  9998
2 46507  97.7678 216.4410 0006868 194.5397 165.5635 15.08981860164178
SAI-1 NANOCONNECT-2     
1 47701U 21015C   23269.78439916  .00210388  00000+0  20953-2 0  9999
2 47701  97.3742 356.3423 0006586 217.0764 143.0042 15.64995781143941
WILDTRACKCUBE-SIMBA     
1 47941U 21022K   23269.88103422  .00015784  00000+0  87006-3 0  9990
2 47941  97.4833 165.1377 0018074 351.8059   8.2875 15.13933920138381
BEESAT-6                
1 47957U 21022AB  23269.21608956  .00036925  00000+0  15318-2 0  9992
2 47957  97.4807 167.5029 0014367 349.4445  10.6488 15.23673973138299
SMOG-1                  
1 47964U 21022AJ  23269.68439037  .00045945  00000+0  17927-2 0  9993
2 47964  97.4853 170.3464 0011809 332.6409  27.4205 15.25708750137527
BCCSAT-1                
1 48041U 21022AK  23269.68651767  .00038385  00000+0  16391-2 0  9990
2 48041  97.4847 168.8721 0010098 335.9871  24.0893 15.22732408137400
BEESAT-5                
1 48083U 21022AM  23268.15699167  .00066018  00000+0  25716-2 0  9998
2 48083  97.4688 166.7797 0013378 351.3966   8.7041 15.25641571137306
BEESAT-7                
1 48084U 21022AN  23269.69941438  .00049225  00000+0  19875-2 0  9990
2 48084  97.4795 168.1929 0013480 346.2793  13.8076 15.24526228137107
BEESAT-8                
1 48085U 21022AP  23269.54108054  .00021787  00000+0  10526-2 0  9991
2 48085  97.4867 166.9008 0016049 347.7278  12.3562 15.18540417137552
LEDSAT                  
1 49069U 21073D   23269.76485992  .00017800  00000+0  91883-3 0  9990
2 49069  97.4738 338.9997 0024245 127.1128 233.2325 15.16118174116288
